{"type":"Feature","properties":{"MUN":"OCEAN CITY","COUNTY":"CAPE MAY","MUN_LABEL":"Ocean City","MUN_TYPE":"City","NAME":"Ocean City","GNIS_NAME":"City of Ocean City"},"geometry":{"type":"Polygon","coordinates":[[[-74.5863972,39.3099032],[-74.5863305,39.3098895],[-74.5862633,39.3098748],[-74.5861955,39.3098594],[-74.586127,39.3098431],[-74.5860579,39.3098259],[-74.5859881,39.3098078],[-74.5859176,39.3097889],[-74.5858463,39.3097691],[-74.5857743,39.3097485],[-74.5857015,39.3097269],[-74.5856277,39.3097044],[-74.585553,39.3096809],[-74.5854773,39.3096565],[-74.5854004,39.3096311],[-74.5853223,39.3096047],[-74.5852428,39.3095772],[-74.5851622,39.3095484],[-74.5850808,39.3095181],[-74.5849983,39.3094862],[-74.5849147,39.3094528],[-74.5848299,39.3094177],[-74.5847435,39.3093808],[-74.5846554,39.309342],[-74.5845652,39.3093013],[-74.5844755,39.3092598],[-74.584383,39.3092159],[-74.584287,39.3091695],[-74.5841865,39.3091201],[-74.5840831,39.3090683],[-74.5839713,39.3090115],[-74.5838482,39.3089484],[-74.5836913,39.3088672],[-74.5836089,39.3088241],[-74.5835264,39.3087801],[-74.5834437,39.3087351],[-74.5833607,39.3086891],[-74.5832775,39.3086421],[-74.5831939,39.3085941],[-74.58311,39.308545],[-74.5830257,39.3084949],[-74.582941,39.3084437],[-74.5828559,39.3083914],[-74.5827702,39.308338],[-74.5826839,39.3082834],[-74.5825969,39.3082275],[-74.5825092,39.3081704],[-74.5824207,39.3081119],[-74.5823313,39.3080521],[-74.5822438,39.3079927],[-74.5821552,39.3079319],[-74.5820653,39.3078696],[-74.5819742,39.3078056],[-74.5818816,39.3077399],[-74.5817872,39.3076723],[-74.5816908,39.3076025],[-74.5815921,39.3075304],[-74.5813918,39.3073823],[-74.5811758,39.3072203],[-74.5809386,39.3070402],[-74.5806377,39.3068098],[-74.5805681,39.306756],[-74.5804925,39.3066965],[-74.5804056,39.3066275],[-74.5801429,39.3064173],[-74.5800582,39.3063505],[-74.5799818,39.3062912],[-74.579902,39.3062303],[-74.5798201,39.3061689],[-74.5797358,39.3061068],[-74.5796492,39.3060439],[-74.5795599,39.3059802],[-74.5794677,39.3059153],[-74.5793723,39.305849],[-74.5792732,39.3057811],[-74.5791737,39.3057138],[-74.5790696,39.3056441],[-74.5789598,39.3055713],[-74.5788425,39.3054943],[-74.5786039,39.3053392],[-74.5781319,39.305035],[-74.5779352,39.3049076],[-74.5777303,39.3047736],[-74.5775476,39.3046523],[-74.5774409,39.3045804],[-74.5773389,39.3045109],[-74.5772408,39.3044432],[-74.5771462,39.304377],[-74.5770547,39.3043119],[-74.5769659,39.3042479],[-74.5768798,39.3041847],[-74.576796,39.3041222],[-74.5766923,39.3040433],[-74.5765779,39.3039545],[-74.5764693,39.303869],[-74.5762102,39.3036637],[-74.576078,39.3035602],[-74.5760124,39.3035095],[-74.5759503,39.3034621],[-74.5758907,39.3034173],[-74.5758331,39.3033746],[-74.5757403,39.3033067],[-74.5756466,39.3032389],[-74.575552,39.303171],[-74.5754565,39.3031033],[-74.57536,39.3030356],[-74.5752627,39.3029679],[-74.5751644,39.3029003],[-74.5750652,39.3028327],[-74.5749771,39.3027737],[-74.5748778,39.3027089],[-74.5747829,39.3026479],[-74.5745615,39.3025066],[-74.5744551,39.3024379],[-74.5743604,39.3023755],[-74.5742752,39.302318],[-74.5742196,39.3022795],[-74.574162,39.3022388],[-74.5741018,39.3021955],[-74.5740377,39.3021487],[-74.5739215,39.3020623],[-74.5736567,39.3018633],[-74.5735322,39.3017713],[-74.5734254,39.3016944],[-74.5733752,39.3016591],[-74.5733264,39.3016255],[-74.5731804,39.3015267],[-74.5730302,39.3014274],[-74.5728756,39.3013273],[-74.5727164,39.3012263],[-74.5725523,39.3011242],[-74.5723828,39.3010207],[-74.5722074,39.3009155],[-74.5720253,39.3008082],[-74.5718312,39.3006956],[-74.5716516,39.3005933],[-74.5715655,39.3005451],[-74.5714814,39.3004985],[-74.571399,39.3004535],[-74.5713182,39.3004099],[-74.5712083,39.3003514],[-74.5710998,39.3002943],[-74.5709923,39.3002386],[-74.570886,39.3001842],[-74.5707807,39.300131],[-74.5706763,39.3000791],[-74.5705727,39.3000284],[-74.5704699,39.2999789],[-74.5703678,39.2999304],[-74.5702664,39.2998831],[-74.5701656,39.2998369],[-74.5700654,39.2997918],[-74.5699658,39.2997477],[-74.5698666,39.2997047],[-74.569768,39.2996627],[-74.5696699,39.2996217],[-74.5695345,39.2995662],[-74.5694098,39.2995159],[-74.5692921,39.2994694],[-74.5691798,39.2994261],[-74.5690711,39.2993852],[-74.5689657,39.2993467],[-74.5688632,39.2993104],[-74.5687631,39.2992761],[-74.5686761,39.2992473],[-74.568588,39.299219],[-74.5684986,39.299191],[-74.568408,39.2991635],[-74.5683162,39.2991364],[-74.568223,39.2991097],[-74.5681286,39.2990834],[-74.5680328,39.2990574],[-74.5679357,39.2990319],[-74.5678373,39.2990068],[-74.5677373,39.298982],[-74.5676359,39.2989575],[-74.5675329,39.2989334],[-74.5674284,39.2989097],[-74.5673222,39.2988862],[-74.5672142,39.298863],[-74.5671061,39.2988404],[-74.5670014,39.2988193],[-74.5668997,39.2987993],[-74.5668005,39.2987806],[-74.5667035,39.298763],[-74.5666085,39.2987465],[-74.5665153,39.2987311],[-74.5664238,39.2987167],[-74.5663286,39.2987027],[-74.5662292,39.2986892],[-74.5661246,39.2986761],[-74.5660131,39.2986631],[-74.5659024,39.2986511],[-74.5657792,39.2986384],[-74.5653931,39.2986008],[-74.565179,39.2985807],[-74.5649612,39.2985618],[-74.5647392,39.2985439],[-74.5645129,39.2985272],[-74.5642819,39.2985115],[-74.5640456,39.2984968],[-74.5638035,39.2984831],[-74.5635548,39.2984704],[-74.5633777,39.298462],[-74.5632142,39.2984548],[-74.5630602,39.2984486],[-74.5629135,39.2984432],[-74.5627719,39.2984387],[-74.5626352,39.2984349],[-74.5625027,39.298432],[-74.5623738,39.2984298],[-74.5622544,39.2984285],[-74.5621329,39.2984279],[-74.5620089,39.298428],[-74.5618823,39.2984288],[-74.5617529,39.2984304],[-74.5616201,39.2984326],[-74.5614836,39.2984356],[-74.5613426,39.2984394],[-74.561204,39.2984436],[-74.5610598,39.2984486],[-74.5609086,39.2984543],[-74.5607484,39.2984609],[-74.5604081,39.2984761],[-74.5598878,39.2985011],[-74.5593574,39.2985253],[-74.5592213,39.2985321],[-74.5590995,39.2985388],[-74.5589687,39.2985469],[-74.5588463,39.2985555],[-74.5587302,39.2985649],[-74.5586192,39.2985749],[-74.5585068,39.2985863],[-74.5583903,39.2985992],[-74.5582689,39.2986137],[-74.5581411,39.29863],[-74.5580095,39.2986477],[-74.5578661,39.2986678],[-74.5577076,39.2986908],[-74.5574978,39.2987219],[-74.5572583,39.2987577],[-74.5570857,39.2987841],[-74.5569298,39.2988088],[-74.5567876,39.2988323],[-74.5566496,39.2988562],[-74.5565192,39.29888],[-74.556395,39.2989039],[-74.5562757,39.2989283],[-74.5561773,39.2989493],[-74.5560793,39.2989708],[-74.5559817,39.298993],[-74.5558845,39.2990157],[-74.5557877,39.2990389],[-74.5556914,39.2990627],[-74.5555957,39.299087],[-74.5555004,39.2991119],[-74.5554057,39.2991373],[-74.5553116,39.2991632],[-74.5552181,39.2991896],[-74.5551252,39.2992166],[-74.5550329,39.299244],[-74.5549413,39.2992719],[-74.5548504,39.2993004],[-74.5547602,39.2993293],[-74.5546615,39.2993619],[-74.5545615,39.2993964],[-74.55446,39.2994327],[-74.5543567,39.299471],[-74.5542515,39.2995112],[-74.5541439,39.2995537],[-74.5540334,39.2995985],[-74.5539194,39.2996459],[-74.5538142,39.2996906],[-74.5537048,39.299738],[-74.5535898,39.2997887],[-74.5534671,39.2998436],[-74.5532543,39.2999402],[-74.5528278,39.3001362],[-74.5526474,39.3002186],[-74.5525599,39.3002586],[-74.5524628,39.3003038],[-74.552054,39.3004965],[-74.5519607,39.3005396],[-74.5518755,39.3005784],[-74.5517493,39.300635],[-74.5516247,39.3006903],[-74.5515016,39.3007444],[-74.55138,39.3007973],[-74.5512595,39.3008491],[-74.5511403,39.3008999],[-74.5510222,39.3009496],[-74.5509052,39.3009983],[-74.550789,39.3010461],[-74.5506737,39.3010929],[-74.5505593,39.3011388],[-74.5504458,39.3011838],[-74.550333,39.3012279],[-74.5502209,39.3012711],[-74.5501095,39.3013134],[-74.5499987,39.3013549],[-74.5497331,39.301453],[-74.5496269,39.3014915],[-74.5495288,39.3015266],[-74.5494338,39.30156],[-74.5493431,39.3015911],[-74.5492558,39.3016204],[-74.5491713,39.3016481],[-74.5489847,39.3017077],[-74.5488211,39.3017585],[-74.5486697,39.3018039],[-74.5485975,39.3018249],[-74.5485271,39.3018449],[-74.5484575,39.3018642],[-74.5483894,39.3018825],[-74.5483226,39.3019001],[-74.5482569,39.3019168],[-74.5481922,39.3019327],[-74.5481285,39.3019479],[-74.5480657,39.3019623],[-74.5480037,39.3019759],[-74.5479473,39.3019879],[-74.5478897,39.3019995],[-74.547831,39.302011],[-74.5477709,39.3020222],[-74.5477095,39.3020333],[-74.5476465,39.3020442],[-74.5475151,39.3020656],[-74.5473784,39.3020864],[-74.5472298,39.3021074],[-74.5470657,39.3021293],[-74.5468602,39.3021555],[-74.5465277,39.302199],[-74.5464397,39.3022097],[-74.5463608,39.3022184],[-74.5462768,39.3022265],[-74.5461982,39.3022328],[-74.5461234,39.3022372],[-74.5460518,39.3022399],[-74.5459895,39.302241],[-74.5459261,39.302241],[-74.5458614,39.30224],[-74.5457953,39.3022379],[-74.5457278,39.3022347],[-74.5456586,39.3022305],[-74.5455875,39.3022252],[-74.5455144,39.3022187],[-74.5454411,39.3022114],[-74.5453652,39.3022029],[-74.5452862,39.3021933],[-74.5452032,39.3021825],[-74.5451174,39.3021705],[-74.5450245,39.3021569],[-74.5449222,39.3021413],[-74.5447939,39.3021213],[-74.5447309,39.3021111],[-74.5446677,39.3021005],[-74.5446042,39.3020893],[-74.5445404,39.3020777],[-74.5444764,39.3020656],[-74.5444121,39.302053],[-74.544283,39.3020263],[-74.5441529,39.3019977],[-74.544022,39.3019672],[-74.5438903,39.3019348],[-74.543758,39.3019005],[-74.5436572,39.3018732],[-74.5435568,39.3018449],[-74.5434569,39.3018157],[-74.5433573,39.3017855],[-74.5432582,39.3017543],[-74.5431595,39.3017222],[-74.5430612,39.3016891],[-74.5429634,39.3016551],[-74.5425291,39.3014137],[-74.5420262,39.301078],[-74.5412929,39.3005473],[-74.5407585,39.3000022],[-74.5404878,39.2997352],[-74.5402938,39.299546],[-74.5415479,39.2987517],[-74.5417555,39.2986236],[-74.544881,39.2966939],[-74.5480999,39.2946511],[-74.5503716,39.2932467],[-74.5507883,39.29298],[-74.5511969,39.2931351],[-74.5512695,39.2929947],[-74.5512746,39.2929862],[-74.5515617,39.2923588],[-74.5516059,39.292132],[-74.5517683,39.291808],[-74.5519293,39.2913376],[-74.5520098,39.2910345],[-74.5520097,39.2908568],[-74.5520096,39.2907627],[-74.5518034,39.2907128],[-74.5518085,39.2906557],[-74.5519204,39.2904925],[-74.5520179,39.2898942],[-74.5521015,39.2894482],[-74.5522272,39.2889478],[-74.5522267,39.2889417],[-74.5523889,39.2888413],[-74.5525624,39.2887189],[-74.5525407,39.2885987],[-74.5525045,39.2885109],[-74.5532784,39.2868208],[-74.554023,39.2858542],[-74.5547029,39.2846783],[-74.5555933,39.2839151],[-74.556163,39.2834876],[-74.5564764,39.2831864],[-74.5568357,39.2826959],[-74.5571187,39.2823089],[-74.5571692,39.2822398],[-74.5573423,39.2818039],[-74.557428,39.2817498],[-74.5575377,39.2816805],[-74.5580852,39.2811985],[-74.5585571,39.2808169],[-74.5589815,39.2804336],[-74.5593107,39.2800746],[-74.5596247,39.2796656],[-74.5597785,39.2794561],[-74.5599804,39.2793396],[-74.5607741,39.2788524],[-74.5616729,39.2783054],[-74.5622185,39.2780006],[-74.5623261,39.2779125],[-74.5625015,39.277777],[-74.5626189,39.2776592],[-74.5629711,39.2772746],[-74.5630218,39.2772287],[-74.5630629,39.2772167],[-74.5630835,39.2772207],[-74.5633543,39.27743],[-74.5633727,39.2774411],[-74.5633997,39.2774461],[-74.5634459,39.2774301],[-74.563931,39.2771459],[-74.5642302,39.2769925],[-74.5643962,39.2769092],[-74.5643994,39.2769087],[-74.5650773,39.2765993],[-74.5656734,39.2763263],[-74.5662227,39.2760534],[-74.5665617,39.2758532],[-74.5666902,39.2758077],[-74.5668305,39.2757804],[-74.5670877,39.2757257],[-74.5673799,39.2756347],[-74.5676021,39.2755618],[-74.5678475,39.2754708],[-74.568128,39.2753252],[-74.5684319,39.275216],[-74.5687826,39.2750795],[-74.5691332,39.2749702],[-74.5693787,39.2748883],[-74.5695774,39.2748336],[-74.5697995,39.2747335],[-74.5700099,39.2746334],[-74.5701968,39.274497],[-74.5703955,39.2744151],[-74.5706744,39.2743815],[-74.5706932,39.274385],[-74.5707743,39.2743779],[-74.5708537,39.2743589],[-74.5711024,39.2742394],[-74.5712955,39.2741749],[-74.5717186,39.2740603],[-74.5720542,39.2739599],[-74.5724273,39.2738568],[-74.5725987,39.2738128],[-74.5727716,39.2737522],[-74.5728641,39.2737026],[-74.5730658,39.2735946],[-74.5733325,39.2734229],[-74.5736039,39.273293],[-74.5741048,39.2730649],[-74.5744509,39.2729288],[-74.5750636,39.2725903],[-74.5764445,39.2719982],[-74.5773186,39.271606],[-74.5782022,39.271134],[-74.5790601,39.2706719],[-74.5792044,39.270612],[-74.579554,39.2704172],[-74.5800271,39.2701924],[-74.5805081,39.2698802],[-74.5813499,39.2694157],[-74.5821725,39.2689412],[-74.5828795,39.2684867],[-74.5840835,39.2676402],[-74.5849091,39.2670634],[-74.5859592,39.2663717],[-74.5869419,39.2657274],[-74.58699,39.2657099],[-74.5870157,39.2657024],[-74.5870638,39.2657024],[-74.5870767,39.2657024],[-74.5870959,39.2657073],[-74.587144,39.2657098],[-74.5871697,39.2657098],[-74.5871922,39.2657048],[-74.587221,39.2656898],[-74.5872371,39.2656748],[-74.5872499,39.2656524],[-74.5872787,39.2656124],[-74.5872947,39.26559],[-74.5873043,39.2655775],[-74.5873139,39.26556],[-74.5873556,39.26553],[-74.5879504,39.265138],[-74.5888754,39.264596],[-74.5890774,39.2644736],[-74.5896304,39.2640117],[-74.5897138,39.2639892],[-74.5898132,39.2639742],[-74.5898922,39.26397],[-74.5900584,39.2638512],[-74.5905362,39.2634504],[-74.5907033,39.2633282],[-74.5910216,39.262948],[-74.5917541,39.2623737],[-74.5919015,39.2622464],[-74.592065,39.2621714],[-74.592226,39.2621164],[-74.5924873,39.2618546],[-74.5925622,39.2618114],[-74.5926259,39.2617852],[-74.5929097,39.2615422],[-74.5931085,39.2614373],[-74.5931598,39.2613998],[-74.5932335,39.2613449],[-74.593272,39.2613024],[-74.593304,39.26127],[-74.5933425,39.2612475],[-74.5934451,39.2611975],[-74.5935509,39.2611351],[-74.593599,39.2611001],[-74.593631,39.2610677],[-74.5936598,39.2610227],[-74.5936983,39.2609803],[-74.5937335,39.2609503],[-74.5938961,39.2609249],[-74.5939315,39.2608951],[-74.5940131,39.2608427],[-74.5941167,39.260753],[-74.5942929,39.2605358],[-74.5949162,39.2599741],[-74.5955845,39.2594572],[-74.5965733,39.2586881],[-74.5972127,39.2582186],[-74.5979291,39.2576568],[-74.5979996,39.2576343],[-74.5980381,39.2576218],[-74.5980766,39.2576068],[-74.5981151,39.2575893],[-74.5981407,39.2575518],[-74.5981695,39.2575169],[-74.5981887,39.2574919],[-74.5982015,39.257472],[-74.59824,39.2574495],[-74.5982849,39.2574245],[-74.5983265,39.2573821],[-74.5983714,39.2573222],[-74.5985092,39.2572347],[-74.5989179,39.2569301],[-74.5994066,39.2565006],[-74.599445,39.2564632],[-74.5994995,39.2564232],[-74.5995476,39.2563858],[-74.5996181,39.2563558],[-74.5997111,39.2563208],[-74.5997848,39.2562658],[-74.6002672,39.2559137],[-74.6003345,39.2558787],[-74.6004051,39.2558412],[-74.6004531,39.2558038],[-74.6005012,39.2557563],[-74.6005684,39.255674],[-74.6006646,39.2555766],[-74.6010379,39.2552495],[-74.6020617,39.2544005],[-74.602778,39.2538411],[-74.6031898,39.2535564],[-74.6037104,39.2530646],[-74.6043242,39.2526275],[-74.6046719,39.2523353],[-74.6047968,39.2522354],[-74.6049025,39.2521231],[-74.6049762,39.2520632],[-74.6050339,39.2520207],[-74.6050916,39.2519807],[-74.6051204,39.2519508],[-74.6051589,39.2519059],[-74.6052069,39.2518684],[-74.6052454,39.2518484],[-74.6052839,39.2518309],[-74.6053416,39.2518159],[-74.6053929,39.2517959],[-74.6054474,39.2517584],[-74.6054794,39.2517185],[-74.6055546,39.2515787],[-74.6061041,39.2511093],[-74.6069709,39.2504125],[-74.6072689,39.2501953],[-74.6073298,39.2501728],[-74.6073458,39.2501653],[-74.6075381,39.2500113],[-74.6077125,39.2498266],[-74.6081008,39.249481],[-74.6085147,39.2491126],[-74.6085628,39.2490877],[-74.6086365,39.2490352],[-74.6087294,39.2489528],[-74.6089936,39.2486931],[-74.609061,39.2486631],[-74.6090994,39.2486456],[-74.6091283,39.2486157],[-74.6091699,39.2485583],[-74.6092371,39.2484535],[-74.6093204,39.248416],[-74.6093685,39.2484059],[-74.6094166,39.2483909],[-74.6094743,39.2483634],[-74.6094935,39.2483385],[-74.6095127,39.2483035],[-74.6095351,39.2482661],[-74.6095608,39.2482411],[-74.6096088,39.2481987],[-74.6096601,39.2481537],[-74.6097146,39.2481287],[-74.6097627,39.2481062],[-74.6098781,39.2480612],[-74.6099325,39.2480163],[-74.610107,39.2477966],[-74.6110697,39.2469177],[-74.6111465,39.2468403],[-74.6112042,39.2467754],[-74.6113035,39.2467154],[-74.6113997,39.2466754],[-74.6114285,39.2466479],[-74.6114573,39.246603],[-74.6115214,39.2465431],[-74.6115919,39.2464807],[-74.6116864,39.2463883],[-74.6117921,39.2463408],[-74.6118787,39.2463108],[-74.6119268,39.2462833],[-74.6119588,39.2462408],[-74.6121974,39.2459787],[-74.6128204,39.2454019],[-74.6144828,39.2438662],[-74.6152306,39.2431421],[-74.6160714,39.2423606],[-74.6161548,39.2423355],[-74.6162061,39.2423155],[-74.6162349,39.242293],[-74.6162605,39.2422556],[-74.6163052,39.2421608],[-74.6165374,39.2419111],[-74.6177096,39.2408348],[-74.6181436,39.2404328],[-74.6186062,39.2398711],[-74.6188769,39.2396887],[-74.6189121,39.2396712],[-74.6189314,39.2396488],[-74.6189505,39.2396188],[-74.6189665,39.2395614],[-74.6190112,39.2394741],[-74.6194708,39.239057],[-74.6204858,39.2379759],[-74.6209837,39.2374466],[-74.6213246,39.2370596],[-74.6218544,39.2364629],[-74.6219377,39.2364279],[-74.6219602,39.2364179],[-74.6219987,39.2364054],[-74.6220243,39.2363979],[-74.6220339,39.2363954],[-74.6220467,39.2363879],[-74.622066,39.2363729],[-74.6220756,39.2363604],[-74.6220852,39.2363454],[-74.6220947,39.236328],[-74.6221043,39.2363005],[-74.6221203,39.2362755],[-74.6221331,39.2362406],[-74.6221459,39.2362206],[-74.6222403,39.2361158],[-74.622514,39.2357987],[-74.6225588,39.2357313],[-74.6225876,39.2356864],[-74.6226164,39.2356589],[-74.6226452,39.2356414],[-74.6226773,39.235614],[-74.6227349,39.2355765],[-74.622783,39.2355315],[-74.6228406,39.2354616],[-74.6228758,39.2354017],[-74.6229141,39.2353069],[-74.6229365,39.2352695],[-74.6229557,39.2352395],[-74.6229813,39.235217],[-74.6230005,39.235202],[-74.6230197,39.2351945],[-74.6230582,39.235177],[-74.6231095,39.2351545],[-74.6231351,39.2351321],[-74.6231927,39.2350721],[-74.6232183,39.2350347],[-74.6232646,39.2349324],[-74.6233191,39.2348899],[-74.6233672,39.2348599],[-74.6234088,39.2348374],[-74.6234633,39.2348074],[-74.6235337,39.234745],[-74.6236586,39.2346202],[-74.6239083,39.2343455],[-74.6239611,39.2342731],[-74.6239867,39.2342581],[-74.6239995,39.2342456],[-74.6240348,39.2342381],[-74.6240925,39.2342306],[-74.6241214,39.234228],[-74.6241727,39.2342205],[-74.6241887,39.234213],[-74.6242111,39.234193],[-74.6242175,39.2341905],[-74.6242207,39.2341756],[-74.6242271,39.2341381],[-74.624227,39.2340783],[-74.6242557,39.2340059],[-74.6243165,39.233931],[-74.6244029,39.2338361],[-74.624515,39.2337113],[-74.6246782,39.233524],[-74.6248159,39.2333892],[-74.6248639,39.2333218],[-74.6249758,39.2331196],[-74.6250016,39.2330699],[-74.6250108,39.23307],[-74.6250328,39.2330743],[-74.6250659,39.2330871],[-74.6251127,39.2330892],[-74.6251486,39.2330827],[-74.6251871,39.2330441],[-74.6252227,39.232952],[-74.6252309,39.2328941],[-74.6252253,39.2328512],[-74.6252087,39.2328213],[-74.625217,39.2328041],[-74.625239,39.2327977],[-74.6252638,39.2328019],[-74.6252969,39.2328276],[-74.6253162,39.2328469],[-74.6253603,39.2328511],[-74.6254126,39.2328296],[-74.6254731,39.2327674],[-74.6255445,39.2326045],[-74.6256544,39.2324244],[-74.6257038,39.2323643],[-74.6257176,39.2323257],[-74.6257175,39.2322914],[-74.6257202,39.23227],[-74.6257422,39.2322593],[-74.6257918,39.2322613],[-74.6258304,39.2322656],[-74.6258552,39.2322613],[-74.6258993,39.2322334],[-74.6259845,39.2321283],[-74.6260201,39.2320168],[-74.6260365,39.2319589],[-74.626064,39.2319332],[-74.6261081,39.2319203],[-74.6261604,39.2318859],[-74.6262016,39.2318409],[-74.6262236,39.2318002],[-74.6262235,39.2317466],[-74.6262317,39.2317123],[-74.6262537,39.2316951],[-74.626284,39.2316908],[-74.6263033,39.2316737],[-74.6263115,39.2316436],[-74.6263004,39.2316179],[-74.6263004,39.2315879],[-74.6263196,39.2315643],[-74.6263664,39.2315493],[-74.626416,39.2315257],[-74.6265122,39.2314077],[-74.6266248,39.231234],[-74.6268118,39.2310174],[-74.626897,39.2309144],[-74.6269602,39.2308158],[-74.6269794,39.2307515],[-74.6269793,39.2307065],[-74.627004,39.2306593],[-74.627026,39.2306336],[-74.6270646,39.2306228],[-74.6271225,39.2306271],[-74.6271775,39.2306248],[-74.6272133,39.2306077],[-74.6272298,39.2305841],[-74.627282,39.2304962],[-74.6273782,39.2303332],[-74.6274497,39.2302603],[-74.6275418,39.2301927],[-74.6276256,39.2300683],[-74.6276517,39.2300179],[-74.6276895,39.2299771],[-74.6277583,39.229931],[-74.6278381,39.229872],[-74.6278932,39.2298291],[-74.6279179,39.2297862],[-74.6279247,39.2297315],[-74.6279232,39.2296972],[-74.6279287,39.2296747],[-74.6279645,39.2296543],[-74.628003,39.2296404],[-74.6280306,39.2296296],[-74.6280553,39.2296039],[-74.628058,39.2295814],[-74.6280504,39.2295685],[-74.6280504,39.229545],[-74.6280668,39.2295064],[-74.6280944,39.2294828],[-74.6281329,39.229472],[-74.6281659,39.2294613],[-74.6282113,39.2294098],[-74.6282388,39.2293498],[-74.6282469,39.229309],[-74.6282689,39.2292811],[-74.6283102,39.2292661],[-74.628357,39.2292361],[-74.628434,39.2291588],[-74.6285054,39.229043],[-74.628566,39.2289937],[-74.6286265,39.2289443],[-74.6288477,39.2286462],[-74.6290952,39.2283502],[-74.6292656,39.2281615],[-74.6294031,39.2280156],[-74.6294416,39.2279899],[-74.6294885,39.2279791],[-74.6295435,39.2279662],[-74.6295766,39.2279426],[-74.6295958,39.2279126],[-74.6295985,39.2278697],[-74.6296011,39.227814],[-74.6296313,39.2277432],[-74.6296712,39.2276917],[-74.6297206,39.2276231],[-74.6297343,39.2275674],[-74.629759,39.2275331],[-74.6298196,39.2274859],[-74.6298415,39.2274644],[-74.6298498,39.2274408],[-74.629858,39.227413],[-74.6298855,39.2273765],[-74.630089,39.227207],[-74.6302967,39.2270118],[-74.6303709,39.2269453],[-74.6304259,39.2268573],[-74.6304698,39.2267844],[-74.6305166,39.2267394],[-74.6305798,39.22669],[-74.631164,39.2260122],[-74.6315407,39.2255704],[-74.6317798,39.225298],[-74.6319805,39.2250717],[-74.632175,39.2248529],[-74.6323125,39.2247124],[-74.6324376,39.2245869],[-74.6325813,39.2244281],[-74.6326912,39.2242855],[-74.6327338,39.2242394],[-74.6327558,39.2242147],[-74.6327751,39.2241815],[-74.6329655,39.2239991],[-74.6332322,39.2236956],[-74.6334995,39.2234028],[-74.6336817,39.2232033],[-74.6337147,39.2231754],[-74.6337532,39.2231657],[-74.6338083,39.2231592],[-74.6338496,39.2231431],[-74.633862,39.223126],[-74.6338646,39.2230895],[-74.6338577,39.2230617],[-74.633848,39.2230392],[-74.633848,39.2230145],[-74.6338617,39.2229995],[-74.6338865,39.222992],[-74.6339058,39.2229931],[-74.6339306,39.2230069],[-74.6339527,39.2230198],[-74.6339747,39.2230208],[-74.6339912,39.2230165],[-74.6340036,39.2229919],[-74.6339966,39.222934],[-74.6339772,39.2228965],[-74.6339703,39.2228601],[-74.6339716,39.2228419],[-74.6339868,39.2228312],[-74.634068,39.2228118],[-74.6341286,39.2227967],[-74.6341554,39.2227795],[-74.6342021,39.2227152],[-74.6342983,39.2225801],[-74.6346151,39.2222337],[-74.6349677,39.2218443],[-74.6351821,39.2215944],[-74.6352583,39.2214829],[-74.6352761,39.221425],[-74.6352926,39.2213961],[-74.6354239,39.2212502],[-74.6354734,39.2212073],[-74.6355352,39.2211397],[-74.6355503,39.2211151],[-74.6355516,39.2210894],[-74.6355626,39.2210668],[-74.6355791,39.2210508],[-74.6356231,39.2210304],[-74.6356754,39.2210003],[-74.6357016,39.2209692],[-74.6357537,39.220847],[-74.6357797,39.2207977],[-74.6358017,39.220773],[-74.635832,39.2207612],[-74.6358568,39.2207601],[-74.6358747,39.2207536],[-74.6358898,39.2207311],[-74.6358953,39.2207075],[-74.6358938,39.2206818],[-74.6358924,39.22067],[-74.6359934,39.2205392],[-74.6362928,39.2200846],[-74.636492,39.2197983],[-74.6365167,39.219765],[-74.6365484,39.2197425],[-74.6365841,39.2197296],[-74.6366172,39.2197263],[-74.6366516,39.2197306],[-74.6366944,39.2197487],[-74.6367206,39.2197541],[-74.6367508,39.2197476],[-74.6367687,39.2197347],[-74.6367756,39.2197144],[-74.63677,39.219694],[-74.6367521,39.2196651],[-74.6367424,39.2196351],[-74.6367409,39.2196073],[-74.6367491,39.219573],[-74.6368432,39.2194304],[-74.6372115,39.2189885],[-74.6377173,39.2184522],[-74.6383233,39.21771],[-74.6388976,39.2169958],[-74.6391613,39.2166183],[-74.6393344,39.2163845],[-74.6394718,39.216228],[-74.6396175,39.2160863],[-74.6397028,39.2160262],[-74.6397799,39.2160047],[-74.6398074,39.2159983],[-74.6398157,39.215979],[-74.6398101,39.2159511],[-74.6398114,39.215904],[-74.6398718,39.2158075],[-74.6399817,39.2156809],[-74.6401246,39.21552],[-74.6402869,39.2153613],[-74.6405493,39.2150374],[-74.6406482,39.2148937],[-74.6407471,39.2147886],[-74.6409311,39.2145033],[-74.6412813,39.2140015],[-74.6414653,39.213742],[-74.6417441,39.2133452],[-74.6422909,39.2126674],[-74.6428858,39.2119145],[-74.6434875,39.2111659],[-74.6435699,39.2110801],[-74.6436304,39.2110008],[-74.643666,39.2109171],[-74.6437457,39.2108249],[-74.6438199,39.210767],[-74.6438749,39.2107197],[-74.6439161,39.210649],[-74.6439794,39.2105975],[-74.6441197,39.2105266],[-74.6444429,39.2103226],[-74.644696,39.2101573],[-74.6450262,39.2100176],[-74.6454172,39.2099185],[-74.6456399,39.2098403],[-74.6456497,39.2098368],[-74.6458643,39.2097208],[-74.6463236,39.2093517],[-74.6466387,39.2090557],[-74.6466479,39.209047],[-74.6467235,39.2089483],[-74.6469323,39.2086866],[-74.6471219,39.2084721],[-74.6471932,39.2083477],[-74.6472838,39.2081998],[-74.6473223,39.2081569],[-74.6473222,39.2081204],[-74.6473056,39.2080947],[-74.647278,39.2080755],[-74.6472092,39.2080713],[-74.6471403,39.2080757],[-74.6470991,39.2080971],[-74.6470605,39.2081165],[-74.6470385,39.2081144],[-74.6470275,39.2081037],[-74.6470247,39.2080844],[-74.6470329,39.2080587],[-74.6470879,39.2080179],[-74.6472446,39.2078934],[-74.6474013,39.2077561],[-74.6475279,39.2076809],[-74.6475829,39.2076444],[-74.6476131,39.2076229],[-74.6476516,39.2075757],[-74.6476791,39.20755],[-74.6480819,39.206858],[-74.6481972,39.2069426],[-74.6486175,39.2071764],[-74.6488323,39.2072959],[-74.6493843,39.2075097],[-74.6504468,39.2078195],[-74.6522543,39.2083106],[-74.6522359,39.2093835],[-74.6522044,39.2094947],[-74.6521264,39.2097698],[-74.6519752,39.2099953],[-74.6474944,39.213756],[-74.6473095,39.2139567],[-74.647195,39.2141444],[-74.6471097,39.214443],[-74.6471103,39.214722],[-74.64718,39.2150974],[-74.6472972,39.2154819],[-74.6474572,39.21573],[-74.6475744,39.2158966],[-74.6478165,39.2160621],[-74.6480665,39.2161716],[-74.6482996,39.2162546],[-74.6492011,39.2163785],[-74.6511691,39.2166491],[-74.6516242,39.2167117],[-74.6546175,39.2169545],[-74.6547865,39.217858],[-74.6547622,39.2183295],[-74.6546499,39.218919],[-74.6546383,39.2193808],[-74.65467,39.2199191],[-74.654717,39.2207166],[-74.6547888,39.2222851],[-74.6547966,39.2224551],[-74.6546725,39.2234965],[-74.654611,39.2240831],[-74.6545983,39.2242039],[-74.6545992,39.2246164],[-74.6546634,39.2250682],[-74.6551845,39.2265802],[-74.655261,39.2269338],[-74.6552544,39.2270185],[-74.6552426,39.2271695],[-74.6551547,39.2273857],[-74.6549279,39.2276218],[-74.6546125,39.2277892],[-74.6543474,39.2278681],[-74.6514303,39.22798],[-74.6499022,39.2280311],[-74.6493467,39.2281301],[-74.6488671,39.2283075],[-74.6484256,39.2285536],[-74.6480853,39.228888],[-74.6479091,39.2291633],[-74.6478264,39.2294087],[-74.6473631,39.2307848],[-74.6470612,39.2313745],[-74.6466582,39.2319546],[-74.6463433,39.2323675],[-74.646342,39.2323711],[-74.6462177,39.2327017],[-74.6461678,39.2329866],[-74.646194,39.2334483],[-74.6462703,39.2337035],[-74.6471442,39.2348321],[-74.6475498,39.2354995],[-74.647603,39.2356639],[-74.6477278,39.2360494],[-74.6478935,39.2367957],[-74.6479452,39.2373359],[-74.6479331,39.237611],[-74.6478745,39.2378808],[-74.6478456,39.2380138],[-74.6473974,39.239065],[-74.6472422,39.2394291],[-74.6470343,39.2396847],[-74.6467568,39.2398717],[-74.6465738,39.2399694],[-74.6465171,39.2399997],[-74.6461131,39.2400985],[-74.6457215,39.2401186],[-74.6444959,39.2399531],[-74.6436748,39.2399345],[-74.6432328,39.239994],[-74.6428794,39.2401418],[-74.6425893,39.2403484],[-74.6425801,39.2403587],[-74.6425114,39.2404358],[-74.6415078,39.2415623],[-74.6409508,39.2421873],[-74.6406735,39.2424626],[-74.6402319,39.2427382],[-74.6388981,39.2433858],[-74.6388121,39.2434275],[-74.6384081,39.2435164],[-74.6380291,39.2435169],[-74.6377156,39.2434985],[-74.6377006,39.2434976],[-74.6363294,39.2431653],[-74.6358114,39.2431265],[-74.6348134,39.2431179],[-74.6332978,39.243267],[-74.6326664,39.2434052],[-74.632605,39.2434269],[-74.6318837,39.2436812],[-74.6305789,39.2442851],[-74.6305648,39.2442916],[-74.6301705,39.2445276],[-74.6300222,39.2446164],[-74.6297344,39.2448095],[-74.6294797,39.2449805],[-74.6293647,39.2450735],[-74.6291517,39.245246],[-74.6291493,39.2452484],[-74.6287608,39.2456394],[-74.6280338,39.246586],[-74.6270846,39.2478219],[-74.6270769,39.2478407],[-74.6268833,39.2483133],[-74.6267958,39.2488143],[-74.626791,39.2491539],[-74.6267846,39.2496051],[-74.6268612,39.2500084],[-74.6269193,39.2502029],[-74.6270931,39.2504648],[-74.6273343,39.2507415],[-74.6279009,39.2512313],[-74.6282193,39.2515753],[-74.6283593,39.2517942],[-74.6283671,39.252103],[-74.6282617,39.25241],[-74.6281555,39.2525869],[-74.6281177,39.2526498],[-74.6279117,39.2528901],[-74.627834,39.2529447],[-74.6277577,39.2530002],[-74.6276828,39.2530566],[-74.6276093,39.2531139],[-74.6275371,39.2531721],[-74.6274663,39.2532313],[-74.6273969,39.2532914],[-74.6273289,39.2533523],[-74.6272585,39.2534176],[-74.627191,39.2534823],[-74.6271263,39.2535466],[-74.6270643,39.2536105],[-74.627005,39.253674],[-74.6269484,39.2537371],[-74.6268945,39.2538],[-74.6268431,39.2538626],[-74.6267965,39.2539215],[-74.6267553,39.2539749],[-74.6267178,39.254025],[-74.6266835,39.2540727],[-74.6266516,39.254119],[-74.6266221,39.2541638],[-74.6265949,39.2542075],[-74.6265699,39.2542502],[-74.6265296,39.254323],[-74.6264947,39.25439],[-74.6264789,39.254422],[-74.626464,39.2544533],[-74.6264502,39.2544838],[-74.6264373,39.2545137],[-74.6264252,39.2545433],[-74.626414,39.2545724],[-74.6264036,39.254601],[-74.6263941,39.2546292],[-74.6263855,39.254657],[-74.6263777,39.2546844],[-74.6263707,39.2547115],[-74.6263646,39.2547383],[-74.6263518,39.2547988],[-74.6263446,39.2548403],[-74.626342,39.2548597],[-74.6263402,39.254878],[-74.6263392,39.2548954],[-74.6263388,39.2549121],[-74.6263397,39.2549368],[-74.6263424,39.2549626],[-74.6263469,39.2549897],[-74.6263531,39.2550186],[-74.6263604,39.2550463],[-74.6263696,39.2550772],[-74.6264049,39.2551848],[-74.6264148,39.2552147],[-74.6264253,39.255245],[-74.6264483,39.2553066],[-74.6264741,39.2553695],[-74.6265027,39.2554339],[-74.6265114,39.2554523],[-74.6265211,39.2554713],[-74.6265438,39.2555125],[-74.6265668,39.2555513],[-74.626622,39.2556415],[-74.6266477,39.2556858],[-74.6266591,39.2557067],[-74.6266693,39.2557266],[-74.6266785,39.2557458],[-74.6266868,39.2557644],[-74.6267034,39.255805],[-74.6267191,39.2558471],[-74.626734,39.2558906],[-74.6267481,39.2559357],[-74.6267613,39.2559825],[-74.6267739,39.2560311],[-74.6267858,39.256082],[-74.6267972,39.2561354],[-74.6268074,39.2561893],[-74.6268162,39.2562433],[-74.6268236,39.2562971],[-74.6268296,39.2563506],[-74.6268341,39.256404],[-74.6268372,39.2564569],[-74.6268389,39.2565095],[-74.6268391,39.2565615],[-74.6268382,39.2565992],[-74.6268361,39.2566384],[-74.6268329,39.2566795],[-74.6268286,39.256723],[-74.6268233,39.2567672],[-74.6268168,39.256816],[-74.6267959,39.2569535],[-74.6267888,39.2569974],[-74.6267808,39.2570421],[-74.626772,39.2570877],[-74.6267623,39.2571343],[-74.6267517,39.2571819],[-74.6267402,39.2572308],[-74.6267276,39.2572811],[-74.6267141,39.2573333],[-74.6266867,39.2574327],[-74.6266544,39.2575433],[-74.626623,39.2576465],[-74.6265402,39.2579147],[-74.6264958,39.2580573],[-74.6264486,39.2582029],[-74.6263983,39.2583519],[-74.6263448,39.2585048],[-74.626288,39.258662],[-74.6262274,39.2588245],[-74.6261628,39.2589936],[-74.6260932,39.2591711],[-74.6260444,39.259293],[-74.6259939,39.2594164],[-74.6259416,39.2595416],[-74.6258875,39.2596687],[-74.6258315,39.2597977],[-74.6257735,39.2599291],[-74.6257134,39.2600629],[-74.625651,39.2601996],[-74.6255793,39.2603539],[-74.6255063,39.2605081],[-74.6254319,39.2606621],[-74.6253562,39.260816],[-74.6252791,39.2609697],[-74.6252007,39.2611232],[-74.625121,39.2612765],[-74.6250399,39.2614296],[-74.6249894,39.2615261],[-74.6248654,39.2617689],[-74.6248294,39.2618371],[-74.624796,39.2618982],[-74.6247556,39.261969],[-74.6247161,39.2620343],[-74.6246964,39.2620654],[-74.6246767,39.2620956],[-74.6246569,39.2621249],[-74.624637,39.2621534],[-74.6246196,39.2621774],[-74.624601,39.2622021],[-74.6245592,39.2622549],[-74.6245119,39.2623115],[-74.6244134,39.2624261],[-74.6243719,39.2624752],[-74.6243295,39.2625274],[-74.6242931,39.262575],[-74.6242405,39.2626475],[-74.6241876,39.2627231],[-74.6241342,39.2628021],[-74.62408,39.2628849],[-74.62405,39.2629327],[-74.6240197,39.262983],[-74.6239889,39.2630363],[-74.6239571,39.2630935],[-74.623929,39.2631456],[-74.6238984,39.2632038],[-74.6237928,39.2634089],[-74.6237503,39.2634902],[-74.6237053,39.2635732],[-74.6236633,39.2636473],[-74.6235878,39.2637751],[-74.6235035,39.263914],[-74.6234087,39.2640671],[-74.623279,39.2642739],[-74.6232078,39.2643858],[-74.6231323,39.2645019],[-74.6230519,39.2646232],[-74.6229653,39.2647516],[-74.6228801,39.2648762],[-74.6227848,39.2650139],[-74.6224209,39.2655344],[-74.6222689,39.2657537],[-74.6221875,39.2658729],[-74.6221122,39.2659846],[-74.6220415,39.2660909],[-74.6219748,39.266193],[-74.6218731,39.2663515],[-74.6217628,39.2665267],[-74.6216442,39.2667175],[-74.6214043,39.2671067],[-74.6213017,39.2672723],[-74.6211928,39.2674461],[-74.621094,39.2676015],[-74.6210015,39.2677447],[-74.6209043,39.2678937],[-74.6208013,39.2680497],[-74.6206908,39.2682154],[-74.6205853,39.2683724],[-74.6204679,39.2685462],[-74.6200305,39.2691895],[-74.61985,39.2694563],[-74.619663,39.2697355],[-74.619578,39.2698638],[-74.6194972,39.2699868],[-74.6193619,39.2701947],[-74.6192219,39.2704118],[-74.6190759,39.2706401],[-74.6189216,39.2708834],[-74.6187753,39.2711155],[-74.6186138,39.271373],[-74.6180155,39.2723319],[-74.6177661,39.27273],[-74.6176307,39.2729447],[-74.6175037,39.2731452],[-74.6173825,39.2733352],[-74.6172659,39.2735169],[-74.6170514,39.2738478],[-74.6168102,39.274216],[-74.6165791,39.2745664],[-74.6160288,39.275398],[-74.6157546,39.2758148],[-74.6156221,39.2760175],[-74.615498,39.2762085],[-74.6153803,39.276391],[-74.6152679,39.2765664],[-74.6149512,39.2770624],[-74.6147618,39.2773609],[-74.6145875,39.2776389],[-74.6145077,39.2777675],[-74.6144317,39.2778912],[-74.6141829,39.2782987],[-74.6140938,39.2784462],[-74.6140135,39.2785805],[-74.6139354,39.2787125],[-74.6138626,39.2788375],[-74.6137938,39.2789573],[-74.6137287,39.2790729],[-74.6135465,39.2793983],[-74.6134916,39.2794981],[-74.6134431,39.279588],[-74.6133948,39.2796799],[-74.6133506,39.2797667],[-74.6133098,39.2798497],[-74.613272,39.2799297],[-74.6132511,39.2799759],[-74.6132301,39.2800242],[-74.6132088,39.280075],[-74.613187,39.2801291],[-74.6131428,39.2802439],[-74.6130557,39.2804784],[-74.6130178,39.2805781],[-74.6129965,39.2806322],[-74.6129761,39.2806825],[-74.6129561,39.2807302],[-74.6129364,39.2807755],[-74.6128994,39.280857],[-74.6128569,39.2809467],[-74.6128114,39.2810399],[-74.6126827,39.2812995],[-74.612644,39.2813797],[-74.6126102,39.281452],[-74.6125699,39.2815409],[-74.6125288,39.2816342],[-74.6124864,39.2817326],[-74.612442,39.2818381],[-74.6123612,39.2820348],[-74.6122206,39.2823835],[-74.6121671,39.2825151],[-74.612113,39.2826462],[-74.6120632,39.2827642],[-74.6120066,39.282896],[-74.611947,39.2830327],[-74.6118841,39.2831754],[-74.6118171,39.2833258],[-74.6117437,39.2834889],[-74.6116622,39.2836687],[-74.6113284,39.2843993],[-74.6111839,39.2847181],[-74.6111057,39.2848925],[-74.6110335,39.2850555],[-74.6109657,39.2852104],[-74.6109017,39.2853588],[-74.6108243,39.2855418],[-74.6107398,39.2857459],[-74.6106594,39.2859434],[-74.6104623,39.2864307],[-74.6103568,39.2866878],[-74.6103018,39.2868196],[-74.6102494,39.286943],[-74.6101987,39.2870602],[-74.6101493,39.2871723],[-74.6100856,39.2873134],[-74.6100128,39.2874702],[-74.6099427,39.2876186],[-74.6097795,39.2879613],[-74.6097025,39.2881249],[-74.6096361,39.2882692],[-74.609577,39.2884011],[-74.6095385,39.2884895],[-74.6094991,39.2885822],[-74.6094585,39.28868],[-74.6094158,39.288785],[-74.6093388,39.2889787],[-74.60916,39.2894355],[-74.6091129,39.289554],[-74.6090696,39.2896608],[-74.6090251,39.2897681],[-74.6089823,39.289869],[-74.6089404,39.289965],[-74.6088991,39.2900569],[-74.608847,39.2901705],[-74.6087944,39.2902834],[-74.6087414,39.2903956],[-74.6086881,39.290507],[-74.6086344,39.2906177],[-74.6085803,39.2907277],[-74.6085258,39.2908369],[-74.6084709,39.2909454],[-74.6084407,39.2910041],[-74.6084086,39.2910652],[-74.608337,39.2911982],[-74.6082679,39.2913236],[-74.6081082,39.2916103],[-74.6080347,39.2917445],[-74.6079737,39.2918586],[-74.6079195,39.2919634],[-74.6078921,39.2920179],[-74.607864,39.292075],[-74.6078045,39.2922002],[-74.6077491,39.2923201],[-74.607619,39.2926059],[-74.6075522,39.2927492],[-74.6075186,39.292819],[-74.6074864,39.2928844],[-74.607455,39.2929465],[-74.607424,39.2930059],[-74.6073844,39.2930797],[-74.6073419,39.2931563],[-74.6072961,39.2932367],[-74.6072462,39.2933222],[-74.6072007,39.2933986],[-74.6071496,39.2934834],[-74.6069707,39.2937765],[-74.6069011,39.2938914],[-74.6068313,39.2940089],[-74.6067699,39.294115],[-74.606687,39.2942625],[-74.6065974,39.2944252],[-74.6065005,39.2946042],[-74.6063034,39.2949717],[-74.6062188,39.2951287],[-74.6061286,39.2952936],[-74.6060465,39.295441],[-74.6059796,39.2955589],[-74.6059087,39.2956817],[-74.6058332,39.2958109],[-74.6057515,39.295949],[-74.6056005,39.2962011],[-74.605253,39.2967764],[-74.6051688,39.2969169],[-74.605093,39.2970444],[-74.6050249,39.2971602],[-74.6049609,39.2972702],[-74.6049003,39.2973758],[-74.6048425,39.2974776],[-74.6047797,39.2975906],[-74.6047112,39.2977165],[-74.6046449,39.2978404],[-74.6044764,39.2981578],[-74.6043825,39.2983316],[-74.604332,39.2984232],[-74.6042839,39.2985087],[-74.6042373,39.2985896],[-74.6041919,39.2986667],[-74.6041406,39.2987513],[-74.6040831,39.2988436],[-74.604016,39.2989489],[-74.6038729,39.2991704],[-74.6038113,39.2992666],[-74.6037473,39.2993685],[-74.6036912,39.2994603],[-74.6036593,39.299514],[-74.6036272,39.2995691],[-74.603595,39.2996255],[-74.6035626,39.2996835],[-74.6034965,39.2998049],[-74.6034278,39.2999357],[-74.6033695,39.3000494],[-74.6033057,39.3001766],[-74.6031023,39.3005895],[-74.6030291,39.3007365],[-74.6029581,39.3008763],[-74.6028924,39.3010025],[-74.6028279,39.3011224],[-74.6027652,39.3012351],[-74.6027341,39.3012893],[-74.6027033,39.3013422],[-74.6026725,39.3013939],[-74.6026417,39.3014445],[-74.6025472,39.3015977],[-74.6024731,39.3017155],[-74.6024048,39.3018214],[-74.6023404,39.3019182],[-74.6023163,39.3019533],[-74.6022905,39.3019898],[-74.6022328,39.3020688],[-74.6021765,39.3021433],[-74.6020437,39.3023166],[-74.6019803,39.3024013],[-74.6019514,39.302441],[-74.6019247,39.3024788],[-74.6018996,39.302515],[-74.6018762,39.3025501],[-74.6018477,39.3025946],[-74.6018193,39.3026416],[-74.6017906,39.3026916],[-74.6017612,39.3027456],[-74.6017361,39.3027935],[-74.6017089,39.302847],[-74.6016198,39.3030273],[-74.6015857,39.303095],[-74.6015508,39.303162],[-74.601518,39.303222],[-74.6014996,39.3032542],[-74.6014813,39.3032851],[-74.6014631,39.3033149],[-74.6014448,39.3033436],[-74.6014264,39.3033714],[-74.6014079,39.3033984],[-74.6013892,39.3034245],[-74.6013703,39.30345],[-74.6013347,39.3034961],[-74.6012982,39.3035418],[-74.601261,39.3035873],[-74.601223,39.3036323],[-74.6011841,39.3036771],[-74.6011444,39.3037215],[-74.6011039,39.3037655],[-74.6010626,39.3038092],[-74.6010284,39.3038387],[-74.6009924,39.3038682],[-74.6009546,39.3038977],[-74.600915,39.3039274],[-74.6008734,39.3039573],[-74.6008296,39.3039875],[-74.6007834,39.3040183],[-74.6007345,39.3040497],[-74.6006571,39.3040977],[-74.6005701,39.3041496],[-74.6004748,39.3042047],[-74.6002805,39.3043152],[-74.6001985,39.3043624],[-74.6001133,39.3044125],[-74.6000381,39.3044581],[-74.5999079,39.3045381],[-74.5997643,39.304625],[-74.5995991,39.3047238],[-74.5992502,39.3049312],[-74.5990992,39.3050214],[-74.5989404,39.3051171],[-74.5987988,39.3052037],[-74.5986919,39.3052701],[-74.5985808,39.30534],[-74.5984642,39.3054142],[-74.5983399,39.3054942],[-74.5981124,39.3056423],[-74.5975788,39.3059921],[-74.5974403,39.3060822],[-74.5973146,39.3061632],[-74.5971882,39.3062438],[-74.5970684,39.3063192],[-74.5969535,39.3063906],[-74.5968424,39.3064585],[-74.5967296,39.3065262],[-74.596603,39.3066008],[-74.5964818,39.3066713],[-74.5961938,39.3068378],[-74.5960506,39.3069215],[-74.5959168,39.307001],[-74.5957966,39.3070741],[-74.595694,39.307138],[-74.595582,39.3072092],[-74.5954605,39.3072877],[-74.595107,39.3075176],[-74.594995,39.3075892],[-74.5948939,39.3076528],[-74.5947383,39.3077494],[-74.5945907,39.3078402],[-74.594449,39.3079267],[-74.5943122,39.3080093],[-74.594179,39.308089],[-74.5940492,39.3081658],[-74.5939222,39.30824],[-74.5937977,39.3083119],[-74.5935454,39.3084558],[-74.5934368,39.308517],[-74.5933348,39.3085738],[-74.5932362,39.3086281],[-74.5931415,39.3086796],[-74.5930497,39.3087287],[-74.5929605,39.3087758],[-74.5926882,39.3089185],[-74.5925375,39.3089965],[-74.5923936,39.3090693],[-74.5923269,39.3091023],[-74.5922627,39.3091336],[-74.592196,39.3091655],[-74.5921311,39.3091958],[-74.5920678,39.3092247],[-74.5920058,39.3092523],[-74.5919448,39.3092787],[-74.5918848,39.309304],[-74.5918256,39.3093282],[-74.5917671,39.3093513],[-74.5916878,39.3093816],[-74.5916055,39.309412],[-74.5915197,39.3094425],[-74.5914301,39.3094734],[-74.5913364,39.3095046],[-74.591237,39.3095369],[-74.5911303,39.3095706],[-74.5910123,39.3096071],[-74.5908994,39.3096414],[-74.5907926,39.309673],[-74.5906903,39.3097024],[-74.5905916,39.3097299],[-74.5904958,39.3097558],[-74.5904025,39.3097801],[-74.5903113,39.3098028],[-74.5902222,39.309824],[-74.5901311,39.3098446],[-74.5900366,39.3098649],[-74.5899381,39.309885],[-74.5898348,39.309905],[-74.5897271,39.3099248],[-74.5896117,39.3099452],[-74.5894861,39.3099666],[-74.5893411,39.3099904],[-74.5890913,39.3100315],[-74.5890184,39.310043],[-74.588953,39.3100527],[-74.5888852,39.3100621],[-74.5888214,39.31007],[-74.5887606,39.3100768],[-74.5887022,39.3100824],[-74.5886348,39.3100879],[-74.5885693,39.3100927],[-74.5885053,39.3100966],[-74.5884428,39.3100998],[-74.5883816,39.3101021],[-74.5883218,39.3101037],[-74.5882631,39.3101045],[-74.5882056,39.3101046],[-74.5881425,39.3101035],[-74.5880767,39.310101],[-74.5880074,39.3100971],[-74.5879336,39.3100917],[-74.5878646,39.3100857],[-74.5877876,39.3100783],[-74.5874918,39.3100472],[-74.5872627,39.3100241],[-74.5871111,39.310008],[-74.5869728,39.3099922],[-74.5868476,39.3099765],[-74.5867855,39.3099682],[-74.5867254,39.3099596],[-74.5866672,39.3099509],[-74.5866106,39.3099419],[-74.5865553,39.3099327],[-74.5865014,39.3099232],[-74.5864487,39.3099134],[-74.5863972,39.3099032]]]}}
